#dP2019  1 14  0  0  0.00000000      96 __u+U ITR00 FIT  IAC
## 2036  86400.00000000   900.00000000 58497 0.0000000000000
+   97   C01C02C03C04C05C06C07C08C09C10C11C12C13C14E01E02E03
+        E04E05E07E08E09E11E12E13E14E15E18E19E21E24E25E26E27
+        E30E31E33E36G01G02G03G04G05G06G07G08G09G10G11G12G13
+        G14G15G16G17G18G19G20G21G22G23G24G25G26G27G28G29G30
+        G31G32J01J02J03J07R01R02R03R04R05R07R08R09R10R11R13
+        R14R15R16R17R18R19R20R21R22R23R24R26  0  0  0  0  0
++        12 12 12 12 12  9  9  8  8  9  8  7  9  8  5  5  5
++         5  6  5  5  5  5  4  6  5  6  5  5  5  4  5  5  5
++         5  5  6  6  3  3  3  4  3  3  3  3  3  3  3  3  3
++         3  3  3  3  3  3  3  3  3  3  3  3  3  3  3  3  3
++         3  3  9  9  9 16  5  5  5  5  5  5  5  5  5  5  5
++         5  5  6  5  5  5  5  5  5  5  5  9  0  0  0  0  0
%c M  cc GPS ccc cccc cccc cccc cccc ccccc ccccc ccccc ccccc
%c cc cc ccc ccc cccc cccc cccc cccc ccccc ccccc ccccc ccccc
%f  0.0000000  0.000000000  0.00000000000  0.000000000000000
%f  0.0000000  0.000000000  0.00000000000  0.000000000000000
%i    0    0    0    0      0      0      0      0         0
%i    0    0    0    0      0      0      0      0         0
/* INFORMATION & ANALYSIS CENTER (IAC) OF MCC   (RAPID DATA)
/* S/V CLOCKS ARE ALIGNED TO GPS & GLONASS TIME RESPECTIVELY
/* USING THE BROADCAST EPHEMERIS                            
/* PCV:IGS14_2035 OL/AL:FES2004  NONE     YN ORB:CoN CLK:CoN
*  2019 01 14  8 30  0.00000000
PC01 -32338.633445  27080.176291     75.786048     86.412284
PC02   4334.839876  41900.803136  -1011.205107   -244.015058
PC03 -14739.411707  39473.292456   -280.994490   -118.970475
PC04 -39672.764227  14354.013099   -100.128174   -214.887906
PC05  21934.322994  35977.936242  -1066.471333    -60.617025
PC06 -21580.961535  35592.200294   5735.316033    271.957226
PC07  -8203.634913  31170.916417  27524.541053    200.927700
PC08 -16957.811224  18878.739146 -33647.121588     88.691460
PC09 -11484.444232  35659.845257  19190.252800    448.371886
PC10   4296.346937  38335.762215  17591.107622   -406.521034
PC11  19939.772630 -16900.300784   9743.979306    -91.444125
PC12  22886.233517    256.834929 -15834.965061    344.949306
PC13  -3427.838094  23129.281922 -35038.741078   -483.951193
PC14  14695.940208 -12915.549247  19971.850443    719.416101
PE01  16173.226001  -4705.232704 -24338.163148   -520.461424
PE02 -16159.496248   4734.451964  24346.553442     43.269860
PE03 -19688.126300  15723.331527 -15549.534927   -122.014264
PE04  11384.098692 -27256.203015  -1940.983890   -199.741248
PE05 -16504.503549  -5107.354311 -24040.001514    125.314544
PE07   3677.589545  22869.067139  18434.037484   -112.306179
PE08 -11117.070064  27365.416834   2012.366240   6423.718260
PE09  -3786.315138 -22774.514782 -18518.256959   6558.694759
PE11 -11374.042699 -14489.005623  23170.312125   5719.757561
PE12  11704.586179 -15888.929726  22076.973959   5939.297834
PE13  11284.054775  14395.970033 -23260.159383    381.712790
PE14  15852.100450  13613.495051 -25060.197786   6460.132524
PE15 -11220.356117  15934.761989 -22265.078229    923.002929
PE18 -12055.432810  -9094.592149  17778.238098   5607.407397
PE19  19779.972634 -13961.250883  17030.035720     -9.135546
PE21  21485.150938  15049.033769 -13713.607556   -514.362778
PE24 -14160.030056 -25639.052295  -4371.727987   6286.752659
PE25 -21485.997053 -15081.524691  13686.192746   1924.280186
PE26  27178.962026   4802.123150 -10677.248844   5021.434033
PE27  13956.837970  25634.741970   4908.868192    550.018961
PE30  -1483.378137  21466.460886  20313.660130   5189.698196
PE31   1730.483297 -21170.982024 -20607.296281    933.013125
PE33  27227.538846  -8172.578277   8268.040709    847.916046
PE36 -27261.424515  -4434.699971  10655.930162    759.831253
PG01  20111.205905  13883.334922 -10945.658373   -145.131062
PG02   1578.829854 -15671.205728  21994.104490   -112.708752
PG03  13101.256640  19961.637046  11668.524739    177.085354
PG04  21990.254944  -7476.383624  12891.948127     82.382432
PG05  -1659.208122 -25466.867675   6848.121788      0.798815
PG06  15389.781146  -9335.328467  19580.365318    297.172193
PG07  25923.713155   6183.815643  -2689.811358     51.975463
PG08   2006.084521  17202.011625 -20034.021596   -129.014593
PG09  19737.494963  -1666.803350  17652.236185    471.898097
PG10 -12834.477008   9541.713746 -21126.064327    135.829855
PG11  15882.013094  11914.481578 -18081.082087   -675.520000
PG12 -10207.120203 -22656.999258   9433.169090    276.481680
PG13   6785.765348 -19451.921396 -16863.775859    -78.367756
PG14 -18252.957085  18715.730218   4405.538414    -93.178562
PG15  -6696.087165 -15679.170136 -20540.020385   -332.301896
PG16   -507.729286  25476.846688   6473.965204    -12.643286
PG17  21709.661669 -14277.244506  -4820.434112     -4.952982
PG18  11001.404654  16242.247043 -18449.146375     15.636131
PG19  19203.850037 -17995.339187   3690.598206   -363.512175
PG20 -16714.398428   -603.951755 -20770.799768    521.104615
PG21 -25822.064086  -2884.354505  -4437.943000   -269.378422
PG22  10979.412436  23825.417199   4537.145276   -622.380584
PG23  13857.572610   8229.836999  21462.319392   -200.574153
PG24 -16760.265544 -15034.994061 -14484.279793    -60.778667
PG25 -15234.076920 -13030.553910  17360.602351   -705.695209
PG26  -5660.608953  20935.005379  15210.663664     95.969591
PG27  -7768.336553  20811.485577 -14425.664445    -48.779291
PG28  13234.827063  -7225.682313 -21259.886070    761.878000
PG29 -17522.321152  -2487.952851  19782.833055    293.624257
PG30  22981.661666  -2200.940583 -13266.582368    -35.657961
PG31 -13211.923974  10721.590451  20510.505225     65.869057
PG32 -20498.657568  16467.103166  -3299.512097   -275.440322
PJ01 -19096.703825  30974.827792 -16713.147547   -214.456246
PJ02 -25987.335865  20245.562009  31056.161811     -0.759775
PJ03 -32258.403791  26764.323248   1726.920585      3.857772
PJ07 -25413.359302  33640.710535    -39.028217    623.253582
PR01  -1606.668018 -21712.266866 -13284.993900     37.913117
PR02 -10265.969280  -3858.004631 -23000.369107    349.303246
PR03 -11977.199327  14642.851556 -17055.011525    154.480506
PR04  -6385.032697  24676.230852   -714.405088    291.247938
PR05   2396.134466  20340.192848  15194.275906     19.927634
PR07  11963.716340 -15086.842136  16779.479202    -55.820072
PR08   6806.266242 -24542.490993   1541.973663     19.560519
PR09  19694.456012  11116.054026 -11848.898022     48.917582
PR10  12800.159933  -1678.649469 -22034.008991     39.615256
PR11  -1979.030996 -15416.546450 -20199.138739    -53.454371
PR13 -19872.469913 -11707.885954  10877.944401    -18.983253
PR14 -12888.485999   2017.603342  21929.720759     34.925618
PR15   1329.781862  14857.433666  20709.589813     99.289310
PR16  15055.895152  19040.631369   7617.620310    -11.650278
PR17 -23772.442938   8527.124488  -3699.360074    196.053381
PR18 -12661.367182  12274.388085 -18383.892008     29.915964
PR19   5119.068418   9421.759898 -23137.212162    -62.122725
PR20  21630.452858    661.871617 -13527.724196   -365.558732
PR21  23565.938151  -8734.027894   4292.926828    -25.489016
PR22  10490.870040 -12235.856724  19826.778557    -64.306635
PR23 -10221.221067  -7523.800056  22125.684094    203.136180
PR24 -22338.274997    493.726452  12274.996427   -176.021761
PR26  20455.467122   1353.303214 -15145.104749     15.883167
EOF
